[{"OBJECT_NAME":"TYVAK-0130","OBJECT_ID":"2021-041BF","EPOCH":"2026-03-09T11:37:42.710304","MEAN_MOTION":15.26049141,"ECCENTRICITY":0.0008953,"INCLINATION":52.9967,"RA_OF_ASC_NODE":128.603,"ARG_OF_PERICENTER":215.1647,"MEAN_ANOMALY":144.876,"EPHEMERIS_TYPE":0,"CLASSIFICATION_TYPE":"U","NORAD_CAT_ID":48606,"ELEMENT_SET_NO":999,"REV_AT_EPOCH":26515,"BSTAR":0.0003519806,"MEAN_MOTION_DOT":8.857e-5,"MEAN_MOTION_DDOT":0},{"OBJECT_NAME":"STARLINK-31025","OBJECT_ID":"2023-203S","EPOCH":"2026-03-09T00:38:34.789056","MEAN_MOTION":15.27576528,"ECCENTRICITY":5.93e-5,"INCLINATION":42.9998,"RA_OF_ASC_NODE":70.4447,"ARG_OF_PERICENTER":277.971,"MEAN_ANOMALY":82.1075,"EPHEMERIS_TYPE":0,"CLASSIFICATION_TYPE":"U","NORAD_CAT_ID":58634,"ELEMENT_SET_NO":999,"REV_AT_EPOCH":12469,"BSTAR":-3.3876096e-5,"MEAN_MOTION_DOT":-1.194e-5,"MEAN_MOTION_DDOT":0}]
